name,address,latitude,longitude
Adair County Volunteer Fire Department,"200 Merchant St, Columbia, KY 42728, USA",37.104458,-85.30559509999999
"Adairville Rural Fire Department, Inc.","220 W Gallatin St, Adairville, KY 42202, USA",36.6718337,-86.8520927
Airport-Sorgho Fire Department,"724 Hwy 56, Owensboro, KY 42301, USA",37.762586,-87.242333
Alexandria Fire District,"7951 Alexandria Pike, Alexandria, KY 41001, USA",38.9677409,-84.3939429
Allen Fire Department,"53 S 3rd St, Allen City, KY 41601, USA",37.61486,-82.722201
Allensville Fire Department,"8825 Allensville Rd, Allensville, KY 42204, USA",36.7132545,-87.0605058
Alvaton Volunteer Fire Department,"6403 Old Scottsville Rd, Alvaton, KY 42122, USA",36.8760857,-86.35323849999999
Anchorage Fire Protection District,"1400 Evergreen Rd, Anchorage, KY 40223, USA",38.2652492,-85.53944279999999
Anderson County Fire Protection District,"1009 Wildcat Rd, Lawrenceburg, KY 40342, USA",38.00841,-84.8793249
Anneta Volunteer Fire & Rescue Department #792,"11700 Anneta Rd, Leitchfield, KY 42754, USA",37.3264897,-86.26435599999999
Anton Volunteer Fire Department,"98 E Center St, Madisonville, KY 42431, USA",37.327824,-87.49726030000001
Artemus Volunteer Fire Department,"Artemus, KY 40903, USA",36.8313983,-83.8392777
Ashland Fire Department,"1021 Carter Ave, Ashland, KY 41101, USA",38.4809946,-82.6460158
"Auburn Rural Fire Fighter, Inc.","108 Spring St, Auburn, KY 42206, USA",36.8627851,-86.70954259999999
Augusta Fire Department,"Main St, Augusta, KY 41002, USA",38.7729656,-84.0073268
Austin Tracy Volunteer Fire Department,"2542 Austin Tracy Rd, Lucas, KY 42156, USA",36.8290063,-86.03079129999999
"Auxier Volunteer Fire Department, Inc.","218 Railroad St, Auxier, KY 41602, USA",37.7383991,-82.7618931
Bagdad Fire Protection District,"4741 Bagdad Rd, Bagdad, KY 40003, USA",38.26125830000001,-85.05855509999999
Bailey Switch Volunteer Fire Department,"1 Cumberland Gap Pkwy, Barbourville, KY 40906, USA",36.9130487,-83.9027166
Baldrock Fire Department,"1001 London Dock Rd, London, KY 40744, USA",36.987504,-84.290928
Ballardsville Fire District,"4604 KY-53, Crestwood, KY 40014, USA",38.3603265,-85.3455998
Bandana Fire Department,"Bandana, KY 42022, USA",37.1439852,-88.9473718
Barbourville Fire Department,"196 Daniel Boone Dr, Barbourville, KY 40906, USA",36.8655348,-83.8873461
"Bardstown-Nelson County Volunteer Fire Department, Inc.","220 N 5th St, Bardstown, KY 40004, USA",37.8127728,-85.46996949999999
Bardwell Fire Department,"Bardwell, KY 42023, USA",36.8706111,-89.0097869
Barlow City Volunteer Fire Department,"Barlow, KY 42024, USA",37.0517194,-89.0467345
Barlow Rural Fire Department,"Barlow, KY 42024, USA",37.0517194,-89.0467345
Barren River Volunteer Fire Department,"529 Brookwood Dr, Bowling Green, KY 42101, USA",36.9890589,-86.50422259999999
Baskett Fire Department,"7492 Dr Hodge Rd, Henderson, KY 42420, USA",37.871007,-87.4643368
Battletown Fire Department,"8700 Battletown Rd, Battletown, KY 40104, USA",38.063956,-86.2938631
Bear Creek Volunteer Fire Department,"Bee Spring, KY 42207, USA",37.292617,-86.28695069999999
Bear Track Volunteer Fire Department,"864 KY-399, Beattyville, KY 41311, USA",37.6234109,-83.7716681
Beattyville Volunteer Fire Department,"1275 Grand Ave, Beattyville, KY 41311, USA",37.5878174,-83.69812189999999
Bedford Volunteer Fire & Rescue,"23 Church St, Bedford, KY 40006, USA",38.5933405,-85.3162212
Beechmont Volunteer Fire Department,"3670 Merle Travis Hwy, Beech Creek, KY 42321, USA",37.2035504,-87.08045589999999
"Belfry Volunteer Fire Department, LTD","253701 Old Hwy 119, Belfry, KY 41514, USA",37.6362787,-82.2560168
Belleview-McVille Fire Protection District,"6900 McVille Rd, Burlington, KY 41005, USA",38.982522,-84.82501099999999
Benham Volunteer Fire Department,"414 W Main St, Cumberland, KY 40823, USA",36.9749332,-82.99287939999999
Benton Fire Department,"516 W 14th St, Benton, KY 42025, USA",36.8552731,-88.3581502
Berea Fire Department,"212 Chestnut St, Berea, KY 40403, USA",37.5698519,-84.2942739
Berry Fire Department,"103 S 2nd St, Berry, KY 41003, USA",38.5207854,-84.38442959999999
Bethel Volunteer Fire Department,"5660 KY-11, Sharpsburg, KY 40374, USA",38.275989,-83.811438
Big Creek Fire & Rescue,"17646 US-421, Big Creek, KY 40914, USA",37.1621601,-83.37347009999999
Big Creek Volunteer Fire Department,"17397 E Big Creek Rd, Sidney, KY 41564, USA",37.6170204,-82.3497424
Big Sandy Fire Department,"29019 Mayo Trail Rd, Catlettsburg, KY 41129, USA",38.2602665,-82.5815829
Black Mudd Fire Protection District,"1714 Rangeland Rd, Okolona, KY 40219, USA",38.1646784,-85.6686809
Blackberry Volunteer Fire Department,"19 Peter Fork Rd, McCarr, KY 41544, USA",37.5933413,-82.1653621
Blaine Volunteer Fire Department,"253701 Old Hwy 119, Belfry, KY 41514, USA",37.6362787,-82.2560168
Blandville Rural Volunteer Fire Department,"5422 Bethlehem Church Rd, Blandville, KY 42087, USA",36.9442135,-88.9742863
Bledsoe Volunteer Fire Department,"6298 State Hwy 221, Bledsoe, KY 40810, USA",36.9286875,-83.23787709999999
Blue Grass Army Depot,"431 Battlefield Memorial Hwy, Richmond, KY 40475, USA",37.6794443,-84.25601689999999
Booneville-Owsley County Volunteer Fire Department,"PO Box 418, Booneville, KY 41314, USA",37.4404261,-83.528342
Boston Volunteer Fire Department & Rescue,"1002 Melon Rd, South Boston, VA 24592, USA",36.6236092,-79.0397543
Bourbon County Fire Department,"345 E Main St, Paris, KY 40361, USA",38.2196723,-84.23861459999999
Bowling Green Fire Department,"701 E 7th Ave, Bowling Green, KY 42101, USA",36.9930753,-86.43544299999999
Boyle County Fire Protection District,"1500 Lebanon Rd, Danville, KY 40422, USA",37.6337813,-84.7926227
Breeding Area Volunteer Fire Department,"Independence Ridge Rd, Breeding, KY 42715, USA",36.9614959,-85.3958579
Bremen Community Volunteer Fire Department,"51 College St, Bremen, KY 42325, USA",37.3607486,-87.22062559999999
Briensburg Fire Protection District,"3287 KY-95, Benton, KY 42025, USA",36.9582888,-88.36423119999999
Bright Shade Fire Department,"141 Mill Creek Rd, Manchester, KY 40962, USA",37.0187373,-83.65938330000002
Brindle Ridge Volunteer Fire Department,"8763 N Wilderness Rd, Mt Vernon, KY 40456, USA",37.4689373,-84.33293979999999
Brodhead Volunteer Fire Department,"3 S Main St, Brodhead, KY 40409, USA",37.4027673,-84.41474389999999
Bromley Volunteer Fire Department,"226 Boone St, Bromley, KY 41016, USA",39.081691,-84.5615356
Bronston-Quinton Volunteer Fire Department,"2375 KY-790, Bronston, KY 42518, USA",36.9651814,-84.6138364
"Brooksville Volunteer Fire Department. Inc.,","103 Frankfort St, Brooksville, KY 41004, USA",38.68255389999999,-84.0660726
Browning Volunteer Fire Department,"3866 Browning Rd, Rockfield, KY 42274, USA",36.9456263,-86.60558440000001
Brownsville Volunteer Fire Department,"121 Washington St, Brownsville, KY 42210, USA",37.1911597,-86.2635012
Brush Creek Volunteer Fire Department,"22 Chelf Ridge Rd, Hustonville, KY 40437, USA",37.3709096,-84.93434789999999
Buckeye Volunteer Fire Department,"180 Industry Rd, Lancaster, KY 40444, USA",37.6073084,-84.58010890000001
"Buckhorn Volunteer Fire Department, Inc.","19 Firehall Rd, Bloomsburg, PA 17815, USA",41.014955,-76.4953309
Buechel Fire Protection District,"4101 Bardstown Rd, Louisville, KY 40218, USA",38.1925543,-85.6467777
Buffalo Fire Deptment,"2619 Greensburg Rd, Buffalo, KY 42716, USA",37.509421,-85.7012888
Burgin Fire Department,"116 Main St, Harrodsburg, KY 40330, USA",37.753127,-84.76661829999999
Burkesville Fire Department,"214 Upper River St, Burkesville, KY 42717, USA",36.7869014,-85.3659526
Burlington Fire Protection District,"6050 Firehouse Dr, Burlington, KY 41005, USA",39.0261534,-84.716702
Burna Community Fire Department,"US-60, United States",36.6270614,-94.99946779999999
Burning Springs Fire Department,"8845, 9195 US-421, Manchester, KY 40962, United States",37.2562317,-83.8185767
"Bush Fire Department, Inc.","8642 East Laurel Road, London, KY 40741, USA",37.0899481,-83.8794085
Butler & Community Volunteer Fire Department,"Taylor St, Butler, KY 41006, USA",38.7866612,-84.3753064
Cadiz Fire Department,"Main St, Cadiz, KY 42211, USA",36.8670493,-87.8085385
Cairo Volunteer Fire Department,"13115 US Highway 41A, Henderson, KY 42420, USA",37.7153435,-87.64999639999999
"Caledonia Volunteer Fire Department, Inc.","212 McAdoo Creek Rd, Clarksville, TN 37043, USA",36.4922119,-87.22230189999999
"Calloway County Fire-Rescue, Inc.","101 E Sycamore St, Murray, KY 42071, USA",36.601741,-88.298737
Calvert City Fire Department,"861 5th Ave SE, Calvert City, KY 42029, USA",37.0241033,-88.3387028
Camp Dick Fire & Rescue District #2,"Old US Hwy 27, Lancaster, KY 40444, USA",37.7142535,-84.64887499999999
Camp Dix Volunteer Fire Department,"US-1, United States",35.5332005,-79.179632
Camp Springs Fire Department,"6844 4 Mile Rd, Melbourne, KY 41059, USA",38.9937089,-84.3640221
Camp Taylor Fire District,"4649 Poplar Level Rd, Louisville, KY 40213, USA",38.1810125,-85.6944204
Campbellsburg Fire and Rescue,"8118 Main St, Campbellsburg, KY 40011, USA",38.52393430000001,-85.2011911
Campbellsville Fire Rescue,"100 W Broadway St, Campbellsville, KY 42718, USA",37.3409503,-85.3462874
Caneyville Volunteer Fire Department,"304 E Maple St, Caneyville, KY 42721, USA",37.4242034,-86.4857624
Cannonsburg Fire Department,"2000 Cannonsburg Rd, Ashland, KY 41102, USA",38.3881335,-82.7033185
Carlisle Volunteer Fire Department,"Carlisle, PA 17013, USA",40.2010241,-77.20027449999999
"Carr Fork Volunteer Fire Department, Inc.","25 KY-582, Pine Top, KY 41843, USA",37.2723361,-82.8646284
Carrollton Fire Department,"750 Clay St, Carrollton, KY 41008, USA",38.6770198,-85.1745258
Carter City Volunteer Fire Department,"Carter, KY 41128, USA",38.4309142,-83.1263506
Catlettsburg Fire Department,"2600 Broadway, Catlettsburg, KY 41129, USA",38.4174139,-82.59814779999999
Cave City Volunteer Fire Department,"103 Duke St, Cave City, KY 42127, USA",37.1392251,-85.9581773
Cayce Volunteer Fire Department,"340 Browder St, Fulton, KY 42041, USA",36.50985379999999,-88.8756355
Cedar Springs Volunteer Fire Department #1,"51 Cedar Springs Rd, Scottsville, KY 42164, USA",36.8365669,-86.1094183
Cedar Springs Volunteer Fire Department #2,"7815 Brownsford Rd, Scottsville, KY 42164, USA",36.7572094,-86.05580959999999
Centertown Volunteer Fire Department,"814 Main St, Centertown, KY 42328, USA",37.41761,-87.0003732
Central Campbell County Fire District,"4113 E Alexandria Pike, Cold Spring, KY 41076, USA",39.0215469,-84.4389954
Central City Fire Department,"207 N 2nd St, Central City, KY 42330, USA",37.2950659,-87.12471690000001
Central Hardin Fire Department,"2522 Ring Rd, Elizabethtown, KY 42701, USA",37.7320554,-85.8433733
Cerulean Volunteer Fire Department,"75 Turner Rawls St, Cerulean, KY 42215, USA",36.962114,-87.7107686
Chalybeate Fire Department,"1846 Chalybeate Rd, Smiths Grove, KY 42171, USA",37.1328747,-86.23291809999999
Charleston Volunteer Fire Department,"53 Sunset Rd, Hanson, KY 42413, USA",37.41715300000001,-87.482173
Cherokee National Forest,"1700 Bypass Rd, Winchester, KY 40391, USA",37.9937654,-84.2137085
Cherryville Fire &Rescue Dept,"7777 Hwy 1690, Louisa, KY 41230, USA",37.9238446,-82.6504625
City of Adairville Volunteer Fire Department,"101 US-177, Carney, OK 74832, USA",35.8068978,-97.0174593
City of Albany Fire Department,"900 N Church St, Livingston, TN 38570, USA",36.3930804,-85.3266092
City of Bardstown Fire Department,"220 N 5th St, Bardstown, KY 40004, USA",37.8124094,-85.470281
City of Bradfordsville Fire Department,"200 Central Ave, Bradfordsville, KY 40009, USA",37.4949099,-85.1501778
City of Dixon Volunteer Fire Department,"Dixon, CA 95620, USA",38.4454641,-121.8232958
City of Evarts Volunteer Fire Department,"101 Harlan St, Evarts, KY 40828, USA",36.864134,-83.1938174
City of London Fire Department,"911 Fire Rescue Dr, London, KY 40741, USA",37.1246839,-84.0824075
City of Mayfield Fire Department,"211 E Broadway St, Mayfield, KY 42066, USA",36.7423683,-88.63424499999999
City of McKee Volunteer Fire Department,"526 Main St, McKee, KY 40447, USA",37.43047370000001,-83.99816299999999
City of Radcliff Fire Department,"604 S Wilson Rd, Radcliff, KY 40160, USA",37.8339626,-85.93554890000001
City of West Liberty Fire Department,"826 W Main St, West Liberty, KY 41472, USA",37.9053794,-83.27374619999999
Clark County Fire Department,"200 Barnes Dr, Winchester, KY 40391, USA",38.0029979,-84.16874949999999
Clarkson Fire & Rescue Department,"204 1st St, Clarkson, KY 42726, USA",37.494428,-86.2198482
Clay City Fire Department,"215 12th St, Clay City, KY 40312, USA",37.8527633,-83.9173132
Clay Fire Department,"215 12th St, Clay City, KY 40312, USA",37.8527633,-83.9173132
Clear Springs Volunteer Fire Department,"3412 KY-301, Mayfield, KY 42066, USA",36.82785519999999,-88.5380835
Clementsville Volunteer Fire Department,"11298 KY-70, Liberty, KY 42539, USA",37.28389749999999,-85.0805312
Clifty Volunteer Fire Department,"120 Firehouse Ln, Graham, KY 42344, USA",37.236165,-87.2758097
Clintonville Volunteer Fire Department,"545 Hawkins - Cummins Rd, Paris, KY 40361, USA",38.2423533,-84.37214379999999
Cloverport Fire Department,"710 W Huston St, Cloverport, KY 40111, USA",37.8350806,-86.63924399999999
"Coal Run Village Volunteer Fire Department, Inc.","98 Church St, Pikeville, KY 41501, USA",37.5163909,-82.5646663
Cobb Hill Volunteer Fire Department,"552 Watson Rdg, Ravenna, KY 40472, United States",37.72031,-83.834403
Columbia Fire Department,"200 Merchant St, Columbia, KY 42728, USA",37.104458,-85.30559509999999
Columbus Volunteer Fire Department,"10996 KY-58, Columbus, KY 42032, USA",36.7565898,-89.1016756
Community Volunteer Fire Department of Canoe,"1650 Houston Rd, Booneville, KY 41314, USA",37.4634481,-83.4989636
Concord Fire Protection District,"5265 Enterprise Dr, Paducah, KY 42001, USA",37.0834319,-88.6960594
"Coon Creek Volunteer Fire & Rescue, Inc.","3197 Coon Creek Rd, Cinda, KY 41776, USA",37.1178152,-83.2961322
Corbin Fire Department,"805 S Main St #106, Corbin, KY 40701, USA",36.9419951,-84.09484549999999
Corinth Volunteer Fire Department,"Corinth, KY 41010, USA",38.4967376,-84.56410989999999
Cornettsville Fire Department,"699 Kentucky Hwy, Cornettsville, KY 41731, USA",37.1078,-83.0881
Cornishville Volunteer Fire Department,"4534 Cornishville Rd, Cornishville, KY 40330, USA",37.7988354,-84.99166880000001
Corydon Civil Defense Fire & Rescue,"Corydon, IN 47112, USA",38.2120121,-86.1219155
Covington Fire Department,"100 E Robbins St, Covington, KY 41011, USA",39.08067399999999,-84.5071169
Cow Creek Volunteer Fire Department,"2147 KY-194, Prestonsburg, KY 41653, USA",37.6607653,-82.6497091
Crab Orchard Fire Department,"602 Elm St, Crab Orchard, KY 40419, USA",37.4613903,-84.5067117
Crescent Springs-Villa Hills Fire and EMS,"777 Overlook Dr, Crescent Springs, KY 41017, USA",39.054649,-84.5841415
Crittenden and Community Volunteer Fire Department,"104 North Main Street, Crittenden, KY 41030, USA",38.7809958,-84.6065766
Crossroads Fire Department,"7274 KY-490, East Bernstadt, KY 40729, USA",37.2648844,-84.1104946
Cub Run Volunteer Fire Department,"13235 Priceville Rd, Cub Run, KY 42729, USA",37.3079807,-86.0595682
Cuba Fire Department,"PO Box 123, Lynnville, KY 42063, USA",36.5607095,-88.5694832
Cumberland River Volunteer Fire Department,"13279 US-119, Partridge, KY 40862, USA",37.02284179999999,-82.8714287
Cumberland Volunteer Fire Department,"414 W Main St, Cumberland, KY 40823, USA",36.9749332,-82.99287939999999
Cunningham Volunteer Fire Department,"3997 Morgan Cir, Cunningham, TN 37052, USA",36.398791,-87.38581599999999
"Custer Area Volunteer Fire & Rescue, Inc.","Custer, KY 40115, USA",37.7379293,-86.2260131
Cutshin Volunteer Fire and Rescue,"210 State Hwy 699, Wooton, KY 41776, USA",37.1192233,-83.27926599999999
Cynthiana Fire Department,"104 E Pleasant St # 2, Cynthiana, KY 41031, USA",38.3903537,-84.2964542
Danville Fire Department,"420 W Main St, Danville, KY 40422, USA",37.6457262,-84.7747562
David Area Volunteer Fire Department,"State Hwy 404, David, KY 41616, USA",37.604896,-82.8610506
Daviess County Fire Department,"5005 KY-54, Owensboro, KY 42303, USA",37.73983200000001,-87.024688
Dawson Springs Volunteer Fire Department,"200 W Arcadia Ave, Dawson Springs, KY 42408, USA",37.1670729,-87.6931987
Dixie Suburban Fire Department,"4603 Cane Run Rd, Louisville, KY 40216, USA",38.19280759999999,-85.845308
Dorton Volunteer Fire Department,"14700 US Highay 23 S, Virgie, KY 41572, USA",37.344,-82.6218
Dover Volunteer Fire Department,"13547 SW K4 Hwy, Dover, KS 66420, USA",38.965289,-95.93794799999999
Drakesboro Volunteer Fire Department,"210 Mose Rager Blvd, Drakesboro, KY 42337, USA",37.2169441,-87.0498604
Dry Ridge Fire Department,"31 Broadway St, Dry Ridge, KY 41035, USA",38.6813351,-84.5932856
Dukes Volunteer Fire Department,"Hawesville, KY 42348, USA",37.8262411,-86.6985638
Dundee Fire Department,"11735 KY-69, Dundee, KY 42338, USA",37.5604539,-86.7728635
Dunmor Volunteer Fire Department,"3866 Browning Rd, Rockfield, KY 42274, USA",36.9456263,-86.60558440000001
Dunnville Volunteer Fire Department,"467 Sloan Fork Rd, Liberty, KY 42539, USA",37.1817801,-84.8939152
Eagle/ Sawyer Fire Protection District Inc.,"Parkers Lake, KY 42634, USA",36.8417848,-84.48119729999999
Earlington Fire Department,"W Main St, Earlington, KY 42410, USA",37.2712806,-87.516572
"East 60 Volunteer Fire Department, Inc.","9221 Frankfort Rd, Waddy, KY 40076, USA",38.1733599,-85.0483615
East Allen Volunteer Fire Department,"1600 Lafayette Rd, Scottsville, KY 42164, USA",36.6809192,-86.06121089999999
East Barren Volunteer Fire Department,"761 Hollis Thomas Rd, Glasgow, KY 42141, USA",36.98367959999999,-85.8329531
East Bernstadt Fire Rescue,"195 Firestation Rd, London, KY 40741, USA",37.1736159,-84.1262194
East Casey County Volunteer Fire Department,"Middleburg, KY 42541, USA",37.3649763,-84.8046446
East Fork Volunteer Fire Department,"19600 KY-3, Rush, KY 41168, USA",38.3065805,-82.71276689999999
East Golden Pond Volunteer Fire Department,"4286 Canton Rd, Cadiz, KY 42211, USA",36.8134862,-87.8832669
East Grayson County Fire Department,"128 Woolridge St, Big Clifty, KY 42712, USA",37.5430726,-86.1544947
East Marshall Fire Department,"7485 Moors Camp Hwy, Gilbertsville, KY 42044, USA",36.92306170000001,-88.2478017
Eastern Campbell Volunteer Fire Department,"California, KY, USA",38.9186766,-84.26354719999999
Eastwood Fire Department,"16010 Shelbyville Rd, Louisville, KY 40245, USA",38.2334548,-85.4571117
Edgewood Fire District,"4649 Poplar Level Rd, Louisville, KY 40213, USA",38.1810102,-85.6943407
Edgewood Fire EMS,"385 Dudley Rd, Edgewood, KY 41017, USA",39.00801,-84.565843
Edmonton Volunteer Fire & Rescue,"1412 W Stockton St, Edmonton, KY 42129, USA",36.9892427,-85.6383711
Ekron Fire & Rescue Department,"Ekron, KY 40117, USA",37.9292349,-86.1794144
Eli Volunteer Fire & Rescue Department,"318 Parks Ridge Rd, Russell Springs, KY 42642, USA",37.02457,-84.98690479999999
Elizabethtown Fire Department,"380 Ring Rd, Elizabethtown, KY 42701, USA",37.6930505,-85.91342399999999
Elliottville Fire Department,"8140 Hogtown Hill, Morehead, KY 40351, USA",38.182677,-83.2744219
Elsmere Fire District,"401 Garvey Ave, Elsmere, KY 41018, USA",39.0097297,-84.601293
"Elva, New Harmony, Oak Level (E N O) Fire Department","Benton, KY 42025, USA",36.85727809999999,-88.350315
Eminence Fire Department,"51 Depot Ave, Eminence, KY 40019, USA",38.3702683,-85.18091559999999
Emlyn Volunteer Fire Department,"3254 S Hwy 25, Emlyn, KY 40730, USA",36.7035241,-84.1456765
Erlanger Fire and EMS Department,"515 Graves Ave, Erlanger, KY 41018, USA",39.022607,-84.60952929999999
Estill County Fire Department,"202 Whispering Woods Dr, Irvine, KY 40336, USA",37.704153,-84.00567099999999
Eubank Volunteer Fire Department,"375 Bulldog St, Eubank, KY 42567, USA",37.2800907,-84.6508521
Evona Volunteer Fire Department,"467 Sloan Fork Rd, Liberty, KY 42539, USA",37.1817801,-84.8939152
"Ewing Volunteer Fire Department, Inc.","1491 Ewing Rd, Ewing, KY 41039, USA",38.4268117,-83.86131809999999
Exie Volunteer Fire Department,"US-68, Greensburg, KY, USA",37.2616751,-85.50126329999999
Fairdale Fire Protection District,"10015 Mitchell Hill Rd, Fairdale, KY 40118, USA",38.104384,-85.7597346
Fairview Volunteer Fire Department,"Fairview, KY 42266, USA",36.8433771,-87.3038926
Falls of Rough Volunteer Fire Department,"123 Green Farms Rd, Falls of Rough, KY 40119, USA",37.5951999,-86.513576
Fallsburg Volunteer Fire Department,"Louisa, KY 41230, USA",38.1142544,-82.60321189999999
Farmers Volunteer Fire Department,"295 Old US Hwy 60, Morehead, KY 40351, USA",38.141806,-83.5412884
Farmington Volunteer Fire Department,"35 Durbin St, Farmington, KY 42040, USA",36.669191,-88.52720389999999
Faubush Tri-County Fire Department,"5600 KY-196, Nancy, KY 42544, USA",37.0535899,-84.8357013
Ferguson Fire Department,"808 Newton St, Ferguson, KY 42533, USA",37.0692782,-84.5946134
Fern Creek Fire Protection District,"6200 Bardstown Rd, Fern Creek, KY 40291, USA",38.156061,-85.5907544
Fernleaf Highland Volunteer Fire Department,"3334 Slack Pike, Maysville, KY 41056, USA",38.651638,-83.87637
Fifth District Rural Volunteer Fire Department,"6810 Caneyville Rd, Morgantown, KY 42261, USA",37.3187866,-86.606614
Fire Department of Bellevue-Dayton,"Van Voast Ave, Bellevue, KY 41073, USA",39.106628,-84.47855609999999
Firebrick Volunteer Fire Department,"41 Industrial Park Rd, Vanceburg, KY 41179, USA",38.5973958,-83.2716609
Fisty Dwarf Volunteer Fire & Rescue,"1736 Trace Branch Rd, Fisty, KY 41743, USA",37.3433023,-83.110714
"Flaherty Volunteer Fire Department., Inc.","3895 Flaherty Rd, Vine Grove, KY 40175, USA",37.8329479,-86.0629766
Flatwoods Volunteer Fire Department,"804 Powell Ln, Flatwoods, KY 41139, USA",38.5188932,-82.7115099
Flemingsburg Volunteer Fire Department,"Flemingsburg, KY 41041, USA",38.4222995,-83.73380759999999
Flippin Volunteer Fire Department,"546 Flippin Lamb Rd, Tompkinsville, KY 42167, USA",36.7202024,-85.8743435
Florence Fire/EMS,"1152 Weaver Rd, Florence, KY 41042, USA",38.9756596,-84.65443549999999
"Fogertown Fire Department, Inc.","9988 KY-638, Manchester, KY 40962, USA",37.2161214,-83.89146629999999
Fordsville Fire Department,"Fordsville, KY 42343, USA",37.6376831,-86.71998359999999
Fort Campbell Fire Department,"2575 Screaming Eagle Blvd, Fort Campbell, KY 42223, USA",36.643173,-87.4419401
Fort Knox Fire Department,"496 Old Ironsides Ave, Fort Knox, KY 40121, USA",37.8930397,-85.9509785
Fort Mitchell Fire Department,"2355 Dixie Hwy, Fort Mitchell, KY 41017, USA",39.0409963,-84.5545693
Fort Thomas Fire Department,"130 N Ft Thomas Ave, Fort Thomas, KY 41075, USA",39.0811649,-84.4489351
Fort Wright Fire Department,"409 Kyles Ln, Covington, KY 41011, USA",39.0519826,-84.5363557
Fountain Run Volunteer Fire Department,"196 Main St, Fountain Run, KY 42133, USA",36.7214184,-85.96692499999999
Fourth District Volunteer Fire Department,"6810 Caneyville Rd, Morgantown, KY 42261, USA",37.3187866,-86.606614
Frankfort Fire & EMS,"314 W 2nd St, Frankfort, KY 40601, USA",38.1949119,-84.8789682
Franklin County Fire Department,"106 Darby Shire Cir, Frankfort, KY 40601, USA",38.1955146,-84.8933429
Franklin Fire Department,"401 Macedonia Rd, Franklin, KY 42134, USA",36.7165869,-86.5650773
Franklin-Simpson Fire Rescue,"401 Macedonia Rd, Franklin, KY 42134, USA",36.7165869,-86.5650773
Fredonia Fire and Rescue,"312 Cassidy Ave, Fredonia, KY 42411, USA",37.2071346,-88.0585021
Fulton Fire Department,"340 Browder St, Fulton, KY 42041, USA",36.5110962,-88.8762503
"Gallatin County Volunteer Fire Department, Inc.","402 Main Cross St, Warsaw, KY 41095, USA",38.7826368,-84.901448
Gameliel Volunteer Fire Department,"122 Holland St, Gamaliel, KY 42140, USA",36.6382406,-85.7941674
Garrard County Fire District 1,"180 Industry Rd, Lancaster, KY 40444, USA",37.6073084,-84.58010890000001
Garrett Area Volunteer Fire Department,"638 Stone Coal Rd, Garrett, KY 41630, USA",37.4777059,-82.8227788
Garrison Volunteer Fire Department,"Garrison, KY, USA",38.6058757,-83.1741035
Georgetown Fire & Rescue,"101 Airport Rd, Georgetown, KY 40324, USA",38.1885273,-84.5642845
Gilbertsville Fire Department,"Kentucky Dam Village, 113 Administration Dr., Gilbertsville, KY 42044, United States",36.9968648,-88.28580219999999
Glasgow Fire Department,"203 S Broadway, Glasgow, KY 42141, USA",36.9942876,-85.9117263
"Glencoe Fire Protection District, Inc","112 Main St, Glencoe, KY 41046, USA",38.71412890000001,-84.8230129
Glendale Fire Department,"405 E Main St, Glendale, KY 42740, USA",37.6010912,-85.904181
Gordon Volunteer Fire & Rescue,"20 Cr-1639, Gordon, KY 41819, USA",36.9908004,-83.0237028
Gott Volunteer Fire Department,"5590 Porter Pike, Bowling Green, KY 42103, USA",36.9729159,-86.3138584
Gracey Fire Department,"7685 Caledonia Rd, Gracey, KY 42232, USA",36.8214076,-87.6904593
Graham Volunteer Fire Department,"120 Firehouse Ln, Graham, KY 42344, USA",37.236165,-87.2758097
"Grahn Volunteer Fire Department, Inc.","Grahn Rd, Olive Hill, KY 41164, USA",38.27243259999999,-83.08149089999999
Grand Lakes Fire Department,"1021 Jake Dukes Rd, Grand Rivers, KY 42045, USA",37.0532868,-88.2728202
Grapevine Community Volunteer Fire Department,"2225 Grapevine Rd, Madisonville, KY 42431, USA",37.2998183,-87.4850989
Grapevine/Chavies Volunteer Fire Department,"Chavies, KY 41727, USA",37.3791772,-83.2880591
Gray Hawk Volunteer Fire Department,"US-421, Gray Hawk, KY 40434, USA",37.38822469999999,-83.93044239999999
Grayson Fire Department,"316 E 3rd St, Grayson, KY 41143, USA",38.3338615,-82.94359419999999
Green County Volunteer Fire & Rescue Department,"207 E Hodgenville Ave, Greensburg, KY 42743, USA",37.26179080000001,-85.4995182
Greenup Fire Department,"1110 Walnut St, Greenup, KY 41144, USA",38.5725987,-82.83044129999999
Greenville Fire Department,"200 Court St, Greenville, KY 42345, USA",37.1999276,-87.1772761
Gulnare Volunteer Fire Department,"978 Sycamore Rd, Pikeville, KY 41501, USA",37.62896509999999,-82.538162
Hacker Volunteer Fire & Rescue,"Hacker Ln, Manchester, KY 40962, USA",37.1449519,-83.766177
Hadley Volunteer Fire Department,"255 Hadley School Rd, Bowling Green, KY 42101, USA",37.0586501,-86.606331
"Hanson Volunteer Fire Department, Inc.","53 Sunset Rd, Hanson, KY 42413, USA",37.41715300000001,-87.482173
Hardinsburg Fire Department,"220 S Main St, Hardinsburg, KY 40143, USA",37.7806654,-86.4610747
"Hardyville Volunteer Fire Department, Inc.","111 N Jackson Hwy, Hardyville, KY 42746, USA",37.25473119999999,-85.7859905
Harlan Fire Department,"114 N Main St, Harlan, KY 40831, USA",36.8476088,-83.3226178
Harned Volunteer Fire & Rescue Department,"20688 Ashburn Rd, Ashburn, VA 20147, USA",39.04496899999999,-77.486584
Harrison County Fire Department,"1014 US-62, Cynthiana, KY 41031, USA",38.3973061,-84.2785325
Harrods Creek Fire Protection District,"8905 US-42, Prospect, KY 40059, USA",38.336325,-85.6221249
Harrodsburg Fire Department,"125 W Broadway St, Harrodsburg, KY 40330, USA",37.7636992,-84.84412069999999
Hartford Fire Department,"677 Clay St, Hartford, KY 42347, USA",37.45141419999999,-86.9039202
Harvey Brewers Fire Department,"KY-58, Benton, KY 42025, USA",36.8570675,-88.35068369999999
"Hatfield Volunteer Fire Department, Inc.","8619 N Big Creek Rd, Belfry, KY 41514, USA",37.7005005,-82.3552874
Hawesville Volunteer Fire Department,"12194 KY-2181, Hawesville, KY 42348, USA",37.7522491,-86.8131489
Hayes Crossing- Haldeman Fire Department,"6400 US-60, Morehead, KY 40351, USA",38.2403874,-83.3501641
Haywood Volunteer Fire Department,"67 W Matthews Mill Rd, Glasgow, KY 42141, USA",36.9463244,-85.9743617
Hazard Fire Department,"50 Main St, Hazard, KY 41701, USA",37.2466511,-83.1927573
Hazel Fire Department,"215 Main St, Hazel, KY 42049, USA",36.502151,-88.3256444
Hazel Green Community Volunteer Fire Department,"Spring St, Hazel Green, KY 41332, USA",37.8007691,-83.4199794
Hebbardsville Area Volunteer Fire Department,"16756 KY-416, Henderson, KY 42420, USA",37.7745543,-87.37397419999999
Hebron Fire Protection District,"3120 N Bend Rd, Hebron, KY 41048, USA",39.064269,-84.702496
Henderson Fire Department,"332 Washington St, Henderson, KY 42420, USA",37.8364128,-87.59136559999999
Hendron Fire Department,"4535 At Massa Dr, Paducah, KY 42003, USA",37.0387676,-88.62949309999999
Herndon Volunteer Fire Department,"Herndon, VA 20170, USA",38.9695545,-77.3860976
Hickman County Fire & Rescue,"Hickman County, TN, USA",35.80127969999999,-87.460397
Hickman Fire Department,"801 Moscow Ave, Hickman, KY 42050, USA",36.5709757,-89.1830258
High Bridge Community Association Fire Department,"4505 High Bridge Rd, Wilmore, KY 40390, USA",37.820314,-84.7203968
Highland Area Fire Department,"807 US-27, Stanford, KY 40484, USA",37.4872335,-84.6448565
Highland Volunteer Fire Department,"Butler Rd, Hopkinsville, KY 42240, USA",36.8838897,-87.3359005
Highview Fire Protection District,"7308 Fegenbush Ln, Louisville, KY 40228, USA",38.143308,-85.6247706
Highway 172 Volunteer Fire Department,"13088 KY-172, West Liberty, KY 41472, USA",37.9835195,-83.1058767
Hillsboro Volunteer Fire Department,"193 Winchester Hwy, Hillsboro, TN 37342, USA",35.3855199,-85.98157049999999
Hiseville Community Volunteer Fire Department,"W Hiseville Main St, Cave City, KY 42127, USA",37.1016571,-85.82208039999999
Hodgenville Volunteer Fire Department,"209 E Water St, Hodgenville, KY 42748, USA",37.57439550000001,-85.73812430000001
Honey Grove Volunteer Fire Department,"11507 Butler Rd, Hopkinsville, KY 42240, USA",36.8893254,-87.309855
Hopkinsville Fire Department,"116 W 1st St, Hopkinsville, KY 42240, USA",36.8712227,-87.4877518
Horse Cave Volunteer Fire Department,"107 Mccubbin Ave, Horse Cave, KY 42749, USA",37.1831401,-85.9022997
"Hurricane Creek Volunteer Fire Department, Inc.","2981 Hurricane Rd, Pikeville, KY 41501, USA",37.5017328,-82.5882323
Hutchison Station Volunteer Fire Department,"1775 Bethlehem Rd, Paris, KY 40361, USA",38.1202134,-84.2967915
Hyden-Leslie County Volunteer Fire Department,"PO Box 210, Hyden, KY 41749, USA",37.1609254,-83.3732373
Independence Fire District,"1980 Delaware Crossing, Independence, KY 41051, USA",38.9325915,-84.54547769999999
Irvine Volunteer Fire Department,"3892 New Irvine Rd, Waco, KY 40385, USA",37.7380784,-84.138053
Irvington Volunteer Fire Department,"216 1st St, Irvington, KY 40146, USA",37.8815,-86.28399999999999
Island Creek Volunteer Fire Department,"2687 Island Creek Rd, Pikeville, KY 41501, USA",37.4564872,-82.5504904
Isonville Volunteer Fire Department,"PO Box 247, Isonville, KY 41149, USA",38.0558312,-83.0039075
Jackson Fire Department,"805 NE Jefferson St, Blue Springs, MO 64014, USA",39.029353,-94.2515604
Jakes Branch Fire & Rescue,"5447 KY-476, Bulan, KY 41722, USA",37.29742,-83.16970359999999
Jamestown Fire Department,"52 Ballard St, Jamestown, KY 42629, USA",36.9845838,-85.0647985
Jeffersontown Fire Protection District,"10540 Watterson Trail, Jeffersontown, KY 40299, USA",38.1951762,-85.5634633
Jenkins Fire Department,"9349 KY-805, Jenkins, KY 41537, USA",37.1879,-82.6472
Jessamine County Fire Department,"1310 S Main St, Nicholasville, KY 40356, USA",37.8611298,-84.5802796
Johns Creek Fire Department,"8094 Meta Hwy, Meta, KY 41501, USA",37.5668883,-82.456681
Johnson Controls Fire/Rescue,"Ashland, KY 41101, USA",38.4803833,-82.6537455
Jonesville Fire Department,"5070 Jonesville Rd, Jonesville, KY 41052, USA",38.6369548,-84.77721079999999
Junction City Fire/ Rescue,"794 Shelby St, Junction City, KY 40440, USA",37.586325,-84.79422509999999
"Keavy Fire Department, Inc.","472 KY-312, Corbin, KY 40701, USA",36.9518042,-84.0916116
Kenton Fire Department,"14081 Decoursey Pike, Morning View, KY 41063, USA",38.86442359999999,-84.4592577
Kentucky 86 Fire and Rescue,"2982 Hardinsburg Rd, Cecilia, KY 42724, USA",37.6638254,-85.992077
Kentucky River Fire & Rescue,"12532 Bethlehem Rd, Bethlehem, KY 40007, USA",38.4611552,-84.9726517
Kevil Rural Fire Department,"1009 Clyde M Elrod Ave, Kevil, KY 42053, USA",37.0844911,-88.8857043
Kimper Volunteer Fire & Rescue Department,"104 Fire Station Rd, Kimper, KY 41539, USA",37.49991,-82.35129830000001
Kings Creek Volunteer Fire Department,"KY-160, Kentucky, USA",37.1422868,-82.88029519999999
Kinniconick Volunteer Fire Department,"KY-377, Vanceburg, KY 41179, USA",38.4838572,-83.3766533
Kirksville Volunteer Fire Department,"668 Kirksville Rd, Richmond, KY 40475, USA",37.6709358,-84.41244669999999
Knifley Area Volunteer Fire Department,"6130 Elkhorn Rd, Columbia, KY 42728, USA",37.2429522,-85.18962959999999
Knottsville Fire Department,"9436 KY-144, Philpot, KY 42366, USA",37.774187,-86.90751399999999
"Krypton Volunteer Fire and Rescue Squad, Inc.","Krypton, KY 41754, USA",37.3121262,-83.3254958
Kuttawa Fire Department,"5472 US-62, Kuttawa, KY 42055, USA",37.0393594,-88.1977812
Kyrock Volunteer Fire Department,"KY-259, Sweeden, KY 42285, USA",37.2486229,-86.2794699
LaCenter Fire Department,"La Center, KY 42056, USA",37.0767199,-88.9736762
LaCenter Rural Fire Department,"165 E 4th St, La Center, KY 42056, USA",37.0767186,-88.9717157
Lacy Volunteer Fire Department,"Lacy Dr, Hopkinsville, KY 42240, USA",36.8896064,-87.48327669999999
Lafayette Volunteer Fire Department,"50 County Road 1032, P.O. Box 1933, Oxford, MS 38655, United States",34.407883,-89.510432
LaGrange Fire & Rescue Department,"309 North 1st Avenue, La Grange, KY 40031, USA",38.4110901,-85.3788999
Lake Dreamland Fire Protection District,"4603 Cane Run Rd, Shively, KY 40216, USA",38.19280759999999,-85.845308
Lake Jerico Fire-Rescue,"531 Lake Jericho Rd, Smithfield, KY 40068, USA",38.4456526,-85.29012379999999
Lancaster Fire & Rescue,"107 N Campbell St, Lancaster, KY 40444, USA",37.62010650000001,-84.57722079999999
LaRue County Fire Department,"209 E Water St, Hodgenville, KY 42748, USA",37.57439550000001,-85.73812430000001
Laurel County Fire Department,"911 TLC Ln, London, KY 40741, USA",37.1195733,-84.06199529999999
Lawrenceburg Fire & Rescue,"201 E Court St, Lawrenceburg, KY 40342, USA",38.03579,-84.89469249999999
Lebanon Fire Department,"357 E Main St, Lebanon, KY 40033, USA",37.5721708,-85.2468615
Lebanon Junction Fire & Rescue,"291 Main St, Lebanon Junction, KY 40150, USA",37.8341946,-85.7328113
Ledbetter Fire District,"1481 US-60, Ledbetter, KY 42058, USA",37.0495917,-88.4589391
Lee County Fire Department,"61 River St, Beattyville, KY 41311, USA",37.5683097,-83.70745079999999
Left Beaver Fire & Rescue,"15990 KY-122, Hi Hat, KY 41636, USA",37.396885,-82.746697
Leitchfield Fire and Rescue,"S Main St, Leitchfield, KY 42754, USA",37.472072,-86.294443
Lewis County Volunteer Fire Company,"41 Industrial Park Rd, Vanceburg, KY 41179, USA",38.5973958,-83.2716609
Lewisburg City Volunteer,"226 Capitol Blvd #710, Nashville, TN 37219, USA",36.1633164,-86.7822638
Lewisburg Rural Fire Department,"105 S 2nd St, Lewisburg, KY 42256, USA",36.9866592,-86.949069
Lewisburg Volunteer Fire Department,"8002 Day Pike, Maysville, KY 41056, USA",38.5850157,-83.6982713
Lewisport Volunteer Fire Department,"590 Old Mill Rd, Lewisport, KY 42351, USA",37.9348678,-86.8998543
Lexington Fire Department,"219, 219 E Third St, Lexington, KY 40508, United States",38.0477611,-84.49016069999999
Liberty Fire Department,"55 Jockey St, Liberty, KY 42539, USA",37.316542,-84.93940649999999
Lily Volunteer Fire Department,"4034 E State Hwy 552, Lily, KY 40740, USA",37.0240053,-84.07583009999999
Lincoln Volunteer Fire Department,"8525 Nolin Dam Rd, Mammoth Cave, KY 42259, USA",37.2616174,-86.1549167
Linton Volunteer Fire Department,"Cadiz, KY 42211, USA",36.8650496,-87.835295
Linwood Volunteer Fire Department,"Magnolia, KY 42757, USA",37.4116971,-85.7051116
Little Poplar Creek Volunteer Fire Department,"Bryants Store, KY 40921, USA",36.7762509,-83.9236962
Little Rock Volunteer Fire Department,"624 S Chester St, Little Rock, AR 72201, USA",34.7440165,-92.28262289999999
Little Sandy Volunteer Fire Department,"Argillite, KY 41121, USA",38.4443449,-82.8317486
Livermore Volunteer Fire Department,"213 3rd St, Livermore, KY 42352, USA",37.4880715,-87.1341618
Livingston Fire Department,"9254, Main St, Livingston, KY 40445, United States",37.2972172,-84.21494249999999
Load Volunteer Fire Department INC.,"Oldtown, Greenup, KY 41144, USA",38.5443707,-82.92864279999999
Lone Oak Fire Department,"111 Cave Thomas Dr, Paducah, KY 42001, USA",37.0311002,-88.67063759999999
Lookout Vounteer Fire & Rescue Department,"20688 Ashburn Rd, Ashburn, VA 20147, USA",39.04496899999999,-77.486584
Loretto Volunteer Fire Department,"100 School House Dr, Loretto, KY 40037, USA",37.6372196,-85.40328629999999
Lost Creek Volunteer Fire Department,"4262 Lost Creek Rd, Hazard, KY 41701, USA",37.3757762,-83.23576279999999
Louisa Fire Department,"215 N Main Cross St, Louisa, KY 41230, USA",38.1168667,-82.60452130000002
Louisville Division of Fire,"1135 W Jefferson St, Louisville, KY 40203, USA",38.2556168,-85.7697602
Louisville Intenational Airport Fire Department,"Louisville International Airport, 600 Terminal Dr, Louisville, KY 40209, USA",38.1862605,-85.7418349
Lovelaceville Volunteer Fire Department,"KY-58, Benton, KY 42025, USA",36.8570675,-88.35068369999999
Lower Cloverfork Fire Department,"101 Chad St, Evarts, KY 40828, USA",36.8646946,-83.1923237
Lowes Fire Department,"5071 KY-440, Lowes, KY 42061, USA",36.8598591,-88.75368200000001
Lowmansville Volunteer Fire Department,"US-23, United States",37.9173216,-82.7318286
Loyall Fire Department,"306 County Pike, Loyall, KY 40854, USA",36.8523044,-83.34363619999999
Ludlow Fire Department,"234 Oak St, Ludlow, KY 41016, USA",39.0931316,-84.5476267
Lynch Volunteer Fire Department,"2315 Perrysville Rd, Danville, IL 61834, USA",40.10846919999999,-87.5851113
Lyndon Fire Department,"8126 New La Grange Rd, Lyndon, KY 40222, USA",38.2592154,-85.6020987
Mackville Volunteer Fire & Rescue,"10629 Main St, Mackville, KY 40040, USA",37.735571,-85.07059009999999
Madison County Fire Department,"560 S Keeneland Dr, Richmond, KY 40475, USA",37.76721089999999,-84.31968739999999
Madisonville Fire Department,"98 E Center St, Madisonville, KY 42431, USA",37.327824,-87.49726030000001
Magnolia Fire Department,"9106 New Jackson Hwy, Magnolia, KY 42757, USA",37.4445029,-85.7454376
Maloneton Volunteer Fire Department,"South Shore, KY 41175, USA",38.72091,-82.9582284
Manchester Fire Rescue,"239 Memorial Dr, Manchester, KY 40962, USA",37.1592469,-83.76220579999999
"Manitou Volunteer Fire Department, Inc.","450 Manitou Rd, Manitou, KY 42436, USA",37.3780037,-87.5811246
Mannington Volunteer Fire & Rescue Department,"103 E Mill St, Crofton, KY 42217, USA",37.0470011,-87.4857033
Marion Fire Department,"118 E Bellville St, Marion, KY 42064, United States",37.3332547,-88.081603
Marrowbone Volunteer Fire Department,"195 Marrowbone Creek Rd, Elkhorn City, KY 41522, USA",37.36586339999999,-82.4144725
Marrowbone West Cumberland Volunteer Fire Department,"214 Upper River St, Burkesville, KY 42717, USA",36.7869014,-85.3659526
Martins Fork Volunteer Fire Department,"Martins Fork Cumberland River, Harlan, KY 40831, USA",36.8448504,-83.3244516
Mattoon Community Fire Department,"100 KY-365, Marion, KY 42064, USA",37.4267595,-88.0143222
Mayfield- Graves Couny Fire Department,"211 E Broadway St, Mayfield, KY 42066, USA",36.7423683,-88.63424499999999
Mayking Volunteer Fire Department,"37 State Hwy 1862, Whitesburg, KY 41858, USA",37.133755,-82.7683804
Mayslick Volunteer Fire Department,"6778 US-68, Mayslick, KY 41055, USA",38.5169955,-83.8415601
Maysville Fire & EMS,"Bridge St, Maysville, KY 41056, USA",38.6452629,-83.7603164
"McDaniels Fire-Rescue, Inc.","KY-259, McDaniels, KY 40152, USA",37.6319649,-86.4368425
McLean County Central District Fire Department,"McLean County, IL, USA",40.5478429,-88.86469799999999
McLean County Eastern District Fire Department,"McLean County, IL, USA",40.5478429,-88.86469799999999
McLean County Southern District Fire Department,"McLean County, IL, USA",40.5478429,-88.86469799999999
McMahan Fire Protection District,"4318 Taylorsville Rd, Louisville, KY 40220, USA",38.2188577,-85.61035919999999
Meade County Fire Protection District,"1800 Armory Rd, Brandenburg, KY 40108, USA",37.9850166,-86.1733083
Meador Community Fire Department,"9700 Smiths Grove Rd, Scottsville, KY 42164, USA",36.888024,-86.1751713
Melber Civic Club Volunteer Fire Department,"11763 KY-339, Melber, KY 42069, USA",36.94466329999999,-88.7255076
Melbourne Volunteer Fire Department,"Melbourne VIC, Australia",-37.8136276,144.9630576
Menifee County Fire Protection District,"192 Dale Back Rd, Frenchburg, KY 40322, USA",37.9232695,-83.56816289999999
Mercer County Fire Protection District,"2805 Louisville Rd, Salvisa, KY 40372, USA",37.8463559,-84.8510297
Middlefork Fire/Rescue,"9219 Campton Rd, Stanton, KY 40380, USA",37.8269179,-83.7358323
Middlesboro Fire Department,"121 Lothbury Ave, Middlesboro, KY 40965, USA",36.6087849,-83.7140234
Middletown Fire Protection District,"108 Urton Ln, Louisville, KY 40223, USA",38.2416022,-85.50926460000001
Midway Fire Department,"109 E Bruen St, Midway, KY 40347, USA",38.1494224,-84.6843786
Milburn Volunteer Fire Department,"4325 KY-1371, Milburn, KY 42070, USA",36.7974154,-88.91070959999999
"Millard East Shelbiana Volunteer Fire and Rescue, Inc.","5200 E Shelbiana Rd, Pikeville, KY 41501, USA",37.415653,-82.4523652
Millersburg Volunteer Fire Department,"301 W 5th St, Millersburg, KY 40348, USA",38.3012464,-84.1508563
Milton Fire & Rescue,"11556 US-421, Milton, KY 40045, USA",38.7182909,-85.3811399
Monroe County Fire and Rescue Squad,"214 S Main St, Tompkinsville, KY 42167, USA",36.69845249999999,-85.6951236
Montgomery County Fire Protection District #1,"805 Indian Mound Dr, Mt Sterling, KY 40353, USA",38.0621655,-83.9564272
Montgomery Volunteer Fire Department,"Cadiz, KY 42211, USA",36.8650496,-87.835295
Monticello Fire Department,"795 N Main St, Monticello, KY 42633, USA",36.8484351,-84.83654399999999
Morehead Fire Department,"135 Flemingsburg Rd, Morehead, KY 40351, USA",38.1782233,-83.4397888
Morgantown Fire Department,"101 N Warren St, Morgantown, KY 42261, USA",37.2252402,-86.68219719999999
Mortons Gap Fire Department,"102 Cross St, Mortons Gap, KY 42440, USA",37.2372703,-87.4734545
Mount Vernon Fire Department,"270 Old US Hwy 25, Mt Vernon, KY 40456, USA",37.353938,-84.331913
Mount Victory Volunteer Fire Department,"14955 KY-192, Somerset, KY 42501, USA",37.0256377,-84.3839861
Mt Olivet/Robertson County Volunteer Fire Department,"45 McDowell St, Mt Olivet, KY 41064, USA",38.5329782,-84.0408815
Mt Washington Fire Department District,"772 N Bardstown Rd, Mt Washington, KY 40047, USA",38.055328,-85.54839369999999
"Mt. Carmel Volunteer Fire Department, Inc.","7592 Mt Carmel Rd, Flemingsburg, KY 41041, USA",38.4851165,-83.6334688
Mud Creek Volunteer Fire Department,"6741 KY-979, Grethel, KY 41631, USA",37.4777601,-82.65688689999999
Mudlick Volunteer Fire Department,"5588 Old Glasgow Rd, Tompkinsville, KY 42167, USA",36.7454375,-85.76298659999999
Muldraugh Fire Department,"120 S Main St, Muldraugh, KY 40155, USA",37.9381678,-85.99202280000002
Mundfordville Fire and Rescue,"717 National Turnpike, Munfordville, KY 42765, USA",37.2802519,-85.89673450000001
Murray Fire Department,"207 S 5th St, Murray, KY 42071, USA",36.6088299,-88.3026175
Muses Mills Fire Department Inc.,"3057 Muses Mill Rd, Wallingford, KY 41093, USA",38.3628427,-83.53486099999999
Nancy Volunteer Fire Department,"9288 KY-80, Nancy, KY 42544, USA",37.0692675,-84.74191259999999
Nebo Fire Department,"Us Highway 41 S , Nebo, KY 42441, Nebo, KY 42441, United States",37.3840267,-87.6419068
Nelson Creek Volunteer Fire Department,"60 Ky-2590, Central City, KY 42330, USA",37.3298012,-87.0521028
Neon Volunteer Fire Department,"Fleming-Neon, KY 41840, USA",37.1931138,-82.7137065
"New Castle Fire & Rescue Squad, Inc.","220 N Property Rd, New Castle, KY 40050, USA",38.4346969,-85.16777379999999
New Haven Fire Department,"362 Center St, New Haven, KY 40051, USA",37.65632,-85.58324929999999
New Hope Volunteer Fire Department,"900 Holy Cross Rd, New Haven, KY 40051, USA",37.6590032,-85.5000972
New Liberty Volunteer Fire Department,"180 KY-36, New Liberty, KY 40355, USA",38.6176584,-84.9100256
Newport Fire/EMS,"998 Monmouth St, Newport, KY 41071, USA",39.0872636,-84.4893348
Niagara Volunteer Fire Department,"15813 KY-136, Robards, KY 42452, USA",37.721653,-87.4872049
Nicholasville Fire Department,"1022 S Main St, Nicholasville, KY 40356, USA",37.8622707,-84.5798106
Nichols Fire District,"4706 KY-44, Shepherdsville, KY 40165, USA",38.0093052,-85.86226889999999
North Graves Volunteer Fire Department,"11176 Hopewell Rd, Boaz, KY 42027, USA",36.9108469,-88.6090498
North Magoffin Volunteer Fire Department,"4845 Coon Creek Rd, Salyersville, KY 41465, USA",37.8304748,-83.0569568
North McCreary Fire Protection District,"1000 The Day Ridge Rd, Whitley City, KY 42653, USA",36.8439024,-84.53727889999999
"North Metcalfe Volunteer Fire Department, Inc.","498 Center Peggyville Rd, Center, KY 42214, USA",37.1464857,-85.691284
North Middletown Volunteer Fire Department,"223 Church St, North Middletown, KY 40357, USA",38.1439775,-84.1084119
North Oldham Fire Protection District,"1660 KY-1793, Goshen, KY 40026, USA",38.39597819999999,-85.58952599999999
Northeast Nelson Fire Department,"130 Perry St, Bloomfield, KY 40008, USA",37.91352759999999,-85.3199126
Northern Harrison Rural Fire Department,"1014 US-62, Cynthiana, KY 41031, USA",38.3973061,-84.2785325
Northern Pendleton County Fire District,"5900 KY-154, Butler, KY 41006, USA",38.8297791,-84.2927313
Norton Branch Volunteer Fire Department,"Rush, KY 41168, USA",38.3244773,-82.7562895
Nortonville Fire Department,"67 Nortonville Rd, Nortonville, KY 42442, USA",37.1883838,-87.50411030000001
Oak Grove Fire and Emergency Services,"553 Thompsonville Ln, Oak Grove, KY 42262, USA",36.6648336,-87.43276519999999
Oak Grove Fire Department,"4613 Cumberland Falls Hwy, Corbin, KY 40701, USA",36.9037466,-84.1648089
Oil Springs Volunteer Fire Department,"81 Wildcat Dr, Oil Springs, KY 41238, USA",37.8114464,-82.94478149999999
Okolona Fire Department,"8501 Preston Hwy, Louisville, KY 40219, USA",38.1298129,-85.6813588
Olive Hill Fire Department,"395 Tygart St, Olive Hill, KY 41164, USA",38.2975789,-83.17770730000001
Olmstead Fire Department,"Kenny Stratton Rd, Olmstead, KY 42265, USA",36.7405967,-87.01124750000001
Olympian Springs Volunteer Fire Department,"4085 Mud Lick Rd, Salt Lick, KY 40371, USA",38.0616259,-83.67327300000001
Oneida Fire Department,"80 Orchard St, Oneida, KY 40972, USA",37.26865799999999,-83.64695689999999
Orangeburg Fire Department,"8002 Day Pike, Maysville, KY 41056, USA",38.5850157,-83.6982713
Owen County Volunteer Fire Department,"Owen County, IN, USA",39.3603429,-86.8220341
Owensboro Fire Department,"512 W 9th St, Owensboro, KY 42301, USA",37.7672199,-87.1153891
Owenton Volunteer Fire Department,"40 Sawdridge Creek Rd, Owenton, KY 40359, USA",38.4221282,-84.8375885
Owingsville Volunteer Fire Department,"19 Goodpaster Ave, Owingsville, KY 40360, USA",38.1437898,-83.77046450000002
Paducah Fire Department,"301 Washington St, Paducah, KY 42003, USA",37.0852557,-88.59594
Paduchah Airport Corp,"Barkley Regional Airport, 2901 Fisher Rd, West Paducah, KY 42086, USA",37.0612439,-88.7675112
Paintsville Fire-Rescue-EMS,"116 Main St, Paintsville, KY 41240, USA",37.8141346,-82.80307669999999
Paris Fire Department,"313 High St, Paris, KY 40361, USA",38.2131627,-84.25039160000001
Park Hills Volunteer Fire Department,"1106 Amsterdam Rd, Park Hills, KY 41011, USA",39.0715035,-84.5332839
Parkers Mill Volunteer Fire Department,"299 Heritage Dr, Somerset, KY 42501, USA",37.0229259,-84.621156
Patterson Creek Volunteer Fire and Rescue,"4088 State Hwy 904, Williamsburg, KY 40769, USA",36.7109467,-84.076191
Payneville Fire Department,"Payneville, KY 40157, USA",37.996044,-86.34781509999999
Peddler Gap Volunteer Fire Department,"7863 State Hwy 437, West Liberty, KY 41472, USA",37.9218471,-83.0409063
Pembroke Volunteer Fire Department,"10960 Jefferson Davis Hwy, Pembroke, KY 42266, USA",36.84358340000001,-87.3014161
Perryville Fire Department,"S Buell St, Perryville, KY 40468, USA",37.6498724,-84.95165779999999
Petersburg Fire Protection District,"3018 2nd, Petersburg, KY 41080, USA",39.0681135,-84.8674003
Pewee Valley Fire Protection District,"8607 Foley Ave, Pewee Valley, KY 40056, USA",38.3027163,-85.4940426
Phelps Volunteer Fire and Rescue,"12812 Phelps 632 Rd, Phelps, KY 41553, USA",37.5037384,-82.1613675
Pikeville Fire & Ambulance Service,"Station #1, 104 Chloe Rd, Pikeville, KY 41501, United States",37.4773661,-82.5161691
Piner-Fiskburg Fire District,"1851 Bracht-Piner Rd, Morning View, KY 41063, USA",38.83063,-84.53938099999999
Pineville Volunteer Fire Department,"108 Church St, Pineville, NC 28134, USA",35.0861767,-80.88935769999999
Pippa Passes Volunteer Fire Department,"4982 KY-899, Pippa Passes, KY 41844, USA",37.3304357,-82.8814101
Plano Volunteer Fire Department,"3210 Plano Rd, Bowling Green, KY 42104, USA",36.8797671,-86.4184342
Pleasant View Volunteer Fire Department,"59 Wolf Creek River Rd, Williamsburg, KY 40769, USA",36.6684322,-84.140049
Pleasure Ridge Park Fire Protection District,"9500 Stonestreet Rd, Louisville, KY 40272, USA",38.1149755,-85.8409665
Pleasureville Fre Department,"State Hwy 241, Pleasureville, KY 40057, USA",38.3518952,-85.11141099999999
Point Pleasant Fire Protection District,"3444 Turfway Rd, Erlanger, KY 41018, USA",39.03938300000001,-84.625697
Pond Creek Volunteer Fire Department,"4368 KY-30, Annville, KY 40402, USA",37.3146914,-83.9993703
Poole Volunteer Fire Department,"A N, 42444, 9690 US-41 ALT, Corydon, KY 42406, United States",37.6406723,-87.644371
Poplar Springs Fire Department,"85 Russell Dr, Liberty, KY 42539, USA",37.3003592,-84.903932
Possum Trot-Sharpe Fire Protection District,"39 Little Cypress Rd, Calvert City, KY 42029, USA",37.006971,-88.4339718
Prestonsburg Fire Department,"200 N Lake Dr # 104, Prestonsburg, KY 41653, USA",37.6729587,-82.7764941
Priceville Volunteer Fire Department,"7030 Raider Hollow Rd, Munfordville, KY 42765, USA",37.37247989999999,-85.9875113
Princeton Fire Department,"206 N Jefferson St, Princeton, KY 42445, USA",37.1093407,-87.8813663
Providence Fire Department-EMS,"200 N Willow St, Providence, KY 42450, USA",37.3992862,-87.7616185
Putney Volunteer Fire Department,"101 Harlan St, Evarts, KY 40828, USA",36.864134,-83.1938174
Raceland Fire Department,"711 Chinn St, Raceland, KY 41169, USA",38.5412906,-82.7298527
Ravenna Fire Department,"622 Main St, Ravenna, KY 40472, USA",37.6849369,-83.9538664
Raywick Volunteer Fire Department #866,"100 School House Dr, Loretto, KY 40037, USA",37.6372196,-85.40328629999999
"Red Bird Volunteer Fire & Rescue, Inc.","220 Queendale Center, Manchester, KY 40962, USA",37.0114504,-83.5300096
"Red Bush Volunteer Fire Department, Inc.","11656 KY-172, Flatgap, KY 41219, USA",37.9433,-82.96719999999999
Red Lick Volunteer Fire Department,"699 Red Lick Rd, Berea, KY 40403, USA",37.5794123,-84.16915449999999
Reed Volunteer Fire Department,"16104 US-60, Reed, KY 42451, USA",37.8513758,-87.35662719999999
Reidland Farley Fire Department,"6217 Benton Rd, Paducah, KY 42003, USA",37.0021886,-88.5287144
Rhodelia Volunteer Fire Department,"9358 Rhodelia Rd, Payneville, KY 40157, USA",37.990472,-86.41097280000001
Richland Volunteer Fire Department,"6310 Beulah Rd, Madisonville, KY 42431, USA",37.2778111,-87.5948244
Richland Volunteer Fire Department,"Girdler, KY 40943, USA",36.9534569,-83.8499526
Richmond Fire Department,"200 N Madison Ave, Richmond, KY 40475, USA",37.7481269,-84.2926232
Rineyville Volunteer Fire Department,"6038 Rineyville Rd, Rineyville, KY 40162, USA",37.7504009,-85.9712055
Roaring Springs Fire Department,"8015 New Hope Rd, Cadiz, KY 42211, USA",36.740672,-87.71740989999999
Robards Community Fire Department,"7984 KY-416, Robards, KY 42452, USA",37.6738972,-87.54756549999999
Rochester Volunteer Fire Department,"119 Main St, Rochester, KY 42273, USA",37.212268,-86.8931558
Rockholds Volunteer Fire Department,"93 Elm St, Rockholds, KY 40759, USA",36.8278801,-84.11640299999999
"Rockhouse Volunteer Fire Department, Inc.","124 US-460, Staffordsville, KY 41256, USA",37.8070466,-82.8596377
Rockport Volunteer Fire Department,"9133 US-62, Rockport, KY 42369, USA",37.3391684,-86.9930317
Rogers Park/Turkey Creek Volunteer Fire Department Inc.,"421 Taylor Fork, Belfry, KY 41514, USA",37.6703671,-82.3142695
"Rolling Fork Volunteer Fire Department, Inc.","362 Center St, New Haven, KY 40051, USA",37.65632,-85.58324929999999
Rosine Volunteer Fire Department,"5 2nd St, Rosine, KY 42370, USA",37.4495994,-86.7405823
"Route 377 Volunteer  Fire Department, Inc.","7405 Cranston Rd, Morehead, KY 40351, USA",38.28615449999999,-83.40563759999999
Route 504 Volunteer Fire Department,"6794 State Hwy 504, Olive Hill, KY 41164, USA",38.216014,-83.1367099
Ruddles Mill - Shawhan Volunteer Fire Department,"Ruddles Mill Rd, Paris, KY 40361, USA",38.2994578,-84.2411621
Rural Bradfordsville Fire Department,"200 Central Ave, Bradfordsville, KY 40009, USA",37.4949099,-85.1501778
Russell Fire Department,"500 Bellefonte Rd, Russell, KY 41169, USA",38.5265655,-82.7302639
Russellville City Fire Department,"620 N Main St, Russellville, KY 42276, USA",36.8513557,-86.8900803
Russellville Rural Fire Department,"Russellville, KY 42276, USA",36.8508896,-86.91911859999999
Ryland Heights and Community Volunteer Fire Department Inc.,"10041 Decoursey Pike, Ryland Heights, KY 41015, USA",38.954273,-84.4649139
Saint Charles Volunteer Fire Department,"110 Washington St, St Charles, KY 42453, USA",37.186527,-87.5564598
"Saint Joseph Fire Department, Inc.","St Joseph, MO, USA",39.7674578,-94.84668099999999
Salem Community Volunteer Fire Department,"111 Maple St, Salem, KY 42078, USA",37.2634981,-88.2427647
Salt Lick Fire Department,"164 Main St, Salt Lick, KY 40371, USA",38.1192721,-83.61594559999999
Salyersville Fire Department,"379 Maple St, Salyersville, KY 41465, USA",37.7525588,-83.06642339999999
Sand Gap Volunteer Fire Department,"US-421, Sandgap, KY 40481, USA",37.1621601,-83.37347009999999
Sanders Fire Department,"38 Main Sanders St, Ghent, KY 41045, USA",38.7166751,-85.044474
Sandlick Volunteer Fire Department,"2968 State Hwy 931, Whitesburg, KY 41858, USA",37.1590447,-82.8242698
Sandy Hook Fire-Rescue,"51 Ambulance Rd, Sandy Hook, KY 41171, USA",38.0972862,-83.1194577
Science Hill Fire Department,"210 Langdon St, Science Hill, KY 42553, USA",37.1771919,-84.6346425
Scott County Fire Rescue,"2200 Cincinnati Rd, Georgetown, KY 40324, USA",38.2800849,-84.5686891
Sebree Fire Department,"36 Spring St, Sebree, KY 42455, USA",37.6062179,-87.53147919999999
Second District Fire Department,"101 Caney Fork Rd, Morgantown, KY 42261, USA",37.053053,-86.74575670000002
Sedalia Fire Department,"5414 KY-97, Sedalia, KY 42079, USA",36.6435,-88.6057
Shady Grove Volunteer Fire Department,"35 Shady Grove-Providence Rd, Marion, KY 42064, USA",37.3374359,-87.8786623
Sharon Grove Volunteer Fire Department,"21, Mt Sharon Rd, Sharon Grove, KY 42280, United States",36.9600332,-87.09026519999999
Sharpsburg Fire Department,"565 Main St, Sharpsburg, KY 40374, USA",38.2015746,-83.9286547
Shelby County Fire Department,"200 Alpine Rd, Shelbyville, KY 40065, USA",38.2191455,-85.2015978
Shelbyville Fire Department,"1040 Main St, Shelbyville, KY 40065, USA",38.2112613,-85.2254166
Shepherdsville Fire Department,"634 Conestoga Pkwy, Shepherdsville, KY 40165, USA",38.0001821,-85.70504509999999
Shively Fire Department,"1800 Park Rd, Shively, KY 40216, USA",38.1948905,-85.8078618
Shopville-Stab Volunteer Fire Department,"331 Stab Rd, Somerset, KY 42501, USA",37.1509705,-84.4355076
Silver Grove Volunteer Fire Department,"5011 4 Mile Rd, Silver Grove, KY 41085, USA",39.0363728,-84.390029
Simpsonville Rural Fire Protection District,"121 Citizens Blvd, Simpsonville, KY 40067, USA",38.2233514,-85.34424299999999
Slaughters Community Volunteer Fire Department,"93 2nd St, Slaughters, KY 42456, USA",37.4873946,-87.5029081
Smith Mills Volunteer Fire Department,"Smith Mills, KY 42457, USA",37.7988588,-87.76230509999999
Smithland Fire & Rescue,"Smithland, KY 42081, USA",37.13894450000001,-88.4033716
Smiths Grove Rural Fire Department,"120 S Main St, Smiths Grove, KY 42171, USA",37.0505174,-86.2088043
Somerset Fire Department,"121 S Central Ave, Somerset, KY 42501, USA",37.0909361,-84.6008816
Sonora Fire And Rescue Department,"200 Main St, Sonora, KY 42776, USA",37.5251466,-85.89413379999999
South Dixie Fire Protection District,"13210 Dixie Hwy, Louisville, KY 40272, USA",38.0638297,-85.8865562
South Eastern Fire District,"8658 KY-85, Island, KY 42350, USA",37.4464486,-87.1362118
South Hancock Volunteer Fire Department,"12194 KY-2181, Hawesville, KY 42348, USA",37.7522491,-86.8131489
South Hopkins Fire Department,"8920 Hopkinsville Rd, Nortonville, KY 42442, USA",37.1768731,-87.462746
South Marshall Fire Department,"112 Park St, Hardin, KY 42048, USA",36.76168,-88.2989984
South McCreary Fire and Rescue,"5787 State Hwy 1651, Pine Knot, KY 42635, USA",36.66871709999999,-84.4540789
South Oldham Fire Department,"6310 Old Lagrange Rd, Crestwood, KY 40014, USA",38.3316339,-85.46247629999999
South Road Volunteer Fire Department,"5534 S Rd, Cadiz, KY 42211, USA",36.7841384,-87.8064881
South Shore Volunteer Fire Department,"28, S Shore Rd, South Shore, KY 41175, United States",38.7213576,-82.9656332
South Whitley Volunteer Fire Department,"3480 State Hwy 1804, Williamsburg, KY 40769, USA",36.61190790000001,-84.090953
Southeast Bullitt Fire Department,"1515 Clermont Rd, Shepherdsville, KY 40165, USA",37.9228008,-85.6733585
Southeast Casey County Volunteer Fire Department,"85 Russell Dr, Liberty, KY 42539, USA",37.3003592,-84.903932
Southeast Floyd County Volunteer Fire Department,"22815 KY-122, Melvin, KY 41650, USA",37.3525626,-82.6962686
Southern Campbell Fire District,"1050 Race Track Rd, Alexandria, KY 41001, USA",38.8878837,-84.3850415
Southgate Volunteer Fire Department,"128 Electric Ave, Southgate, KY 41071, USA",39.071547,-84.47322299999999
Sparta Volunteer Fire Department,"Boone Rd, Sparta, KY 41086, USA",38.7030332,-84.89640279999999
Spencer County Fire Protection District,"108 Water St, Taylorsville, KY 40071, USA",38.0309897,-85.3506464
Spottsville Volunteer Fire Department,"8857 Old US 60 Hwy, Spottsville, KY 42458, USA",37.852858,-87.4170855
Springfield Fire Department,"308-310 W Main St, Springfield, KY 40069, USA",37.6880791,-85.2283753
St Matthews Fire Protection District,"240 Sears Ave, St Matthews, KY 40207, USA",38.2568385,-85.6463058
Stamping Ground City Fire Department,"122 Springview Dr, Stamping Ground, KY 40379, USA",38.2707512,-84.6833896
Stamping Ground Rural Fire Department,"122 Springview Dr, Stamping Ground, KY 40379, USA",38.2707512,-84.6833896
Stanford Fire Department,"400 E Main St, Stanford, KY 40484, USA",37.5299319,-84.659105
Stanley Fire Department,"159 KY-1554, Stanley, KY 42301, USA",37.8222188,-87.2474714
Stanton Fire Department,"120 Court St, Stanton, KY 40380, USA",37.8535918,-83.8584437
Stephensburg Fire and Rescue,"10601 Leitchfield Rd, Cecilia, KY 42724, USA",37.6111605,-86.0221159
Stinking Creek Volunteer Fire & Rescue,"2085 Ky 718, Walker, KY 40997, USA",36.8875072,-83.7070071
Stinnett Fire and Rescue,"12909 US-421, Hoskinston, KY 40844, USA",37.0653282,-83.4086086
Stony Point Volunteer Fire Department,"47 Stony Point Rd, Franklin, KY 42134, USA",36.6876106,-86.3633936
Sturgis Fire Department,"110 6th St, Sturgis, KY 42459, USA",37.5469244,-87.9855688
Sullivan Community Fire Department,"42460, 19327 KY-141, Sturgis, KY 42459, United States",37.5022258,-87.94128970000001
Summer Shade Volunteer Fire Department,"50 Fire House Lane Rd, Summer Shade, KY 42166, USA",36.883918,-85.70547239999999
Summersville Fire Department,"5902 Hodgenville Rd, Greensburg, KY 42743, USA",37.3361954,-85.5565862
Summit-Ironville Volunteer Fire Department,"Ashland, KY 41102, USA",38.4431876,-82.7084587
Swiss Colony Fire Department,"3607 Somerset Rd, London, KY 40741, USA",37.1564707,-84.1949202
Sycamore React Volunteer Fire Department,"197 Elkhorn Creek Rd, Elkhorn City, KY 41522, USA",37.2591311,-82.46534969999999
Symsonia Fire Department,"467 KY-348, Symsonia, KY 42082, USA",36.917083,-88.5125698
Tateville Volunteer Fire Department,"181 Sycamore Dr, Tateville, KY 42558, USA",36.9758903,-84.6598109
Taylor County Fire Department,"100 W Broadway St, Campbellsville, KY 42718, USA",37.3409503,-85.3462874
Taylor Mill Fire & EMS Department,"5231 Taylor Mill Rd, Taylor Mill, KY 41015, USA",39.0153913,-84.4964968
Taylorsville Fire Department,"108 Water St, Taylorsville, KY 40071, USA",38.0309897,-85.3506464
Temple Hill Volunteer Fire and Rescue,"8543 Tompkinsville Rd, Glasgow, KY 42141, USA",36.8884612,-85.85030139999999
Theakla Volunteer Fire Department,"1289 Boonesborough Rd, Richmond, KY 40475, USA",37.8462748,-84.31983900000002
Thelma Volunteer Fire Department,"6411 Main St, Thelma, KY 41260, USA",37.8307789,-82.7589793
Thousandsticks Volunteer Fire & Rescue Department,"1615 Bull Creek Rd, Hyden, KY 41749, USA",37.1967799,-83.403059
Three Point Volunteer Fire Department,"569 N Hwy 25 W, Williamsburg, KY 40769, USA",36.7513654,-84.1583311
Toler Creek Volunteer Fire Department,"1803 Toler Creek Rd, Harold, KY 41635, USA",37.50338,-82.62919699999999
Tollesboro Highland Volunteer Fire Department,"2126 KY-10, Tollesboro, KY 41189, USA",38.5695159,-83.5330379
Tolu Community Volunteer Fire Department,"6367 KY-135, Marion, KY 42064, USA",37.4286236,-88.2177396
Tompkinsville Fire Department,"702 N Magnolia St, Tompkinsville, KY 42167, USA",36.7029851,-85.68637249999999
Trenton Volunteer Fire Department,"111 South Main St, Trenton, KY 42286, USA",36.7226933,-87.2619275
Tri-Community Volunteer Fire Department,"57 Zoe Church Loop, Zoe, KY 41397, USA",37.6814887,-83.6842247
Trigg-Lyon Volunteer Fire Department,"8811 Rockcastle Rd, Cadiz, KY 42211, USA",36.8981034,-87.9633839
Troublesome Creek Volunteer Fire Department,"Ary, KY 41712, USA",37.3583599,-83.15685979999999
U. S. Enrichment Corp. (Paducah) Fire Department,"Paducah, KY 42002, USA",37.08,-88.6
Union Fire Protection District,"9611 US-42, Union, KY 41091, USA",38.9522913,-84.6772285
Uniontown City Fire Department,"501-599 3rd St, Uniontown, KY 42461, USA",37.7721362,-87.93517539999999
Upper Pond Creek Fire Department,"3663 Pond Creek Rd, Pinsonfork, KY 41555, USA",37.5560169,-82.2596509
Upton Fire Department,"217 S Walnut St, Upton, KY 42784, USA",37.4639104,-85.89388489999999
Valley Creek Area Volunteer Fire Department,"2927 Valley Creek Rd, Elizabethtown, KY 42701, USA",37.6806372,-85.7956976
Vanceburg Volunteer Fire Department,"701 Front St, Vanceburg, KY 41179, USA",38.6025244,-83.3164233
"Vancleve Volunteer Fire Department, Inc.","KY-15, Kentucky, USA",37.5573435,-83.38398
Versailles Fire Department,"131 S Locust St, Versailles, KY 40383, USA",38.05195,-84.729123
Vincent Volunteer Fire Department,"Marcum, KY 40914, USA",37.1106451,-83.5596346
Vine Grove Fire Department,"513 Highland Ave, Vine Grove, KY 40175, USA",37.8149284,-85.97233390000001
Viola Volunteer Fire Department,"5006 KY-1241, Hickory, KY 42051, USA",36.8616115,-88.6648486
Viper Fire and Rescue,"163 Right Fork Maces Creek Rd, Viper, KY 41774, USA",37.18074379999999,-83.15045479999999
"W. R. Castle Volunteer Fire & Rescue, Inc.","3832 US-23, Wittensville, KY 41274, USA",37.864513,-82.79104099999999
Waco Volunteer Fire Department,"3892 New Irvine Rd, Waco, KY 40385, USA",37.7380784,-84.138053
Waddy Fire Protection,"135 Chester Dare Rd, Waddy, KY 40076, USA",38.1327844,-85.07773879999999
Walton Fire Protection District,"12600 Towne Center Dr, Walton, KY 41094, USA",38.85373,-84.616503
Warfield Fire and Rescue,"3 Firehouse Ln, Warfield, KY 41267, USA",37.84358659999999,-82.41964180000001
Warsaw Fire Department,"402 Main Cross St, Warsaw, KY 41095, USA",38.7826368,-84.901448
Washington-Maysville Volunteer Fire Department,"2231 Green St, Maysville, KY 41056, USA",38.611566,-83.8079451
Water Valley Volunteer Fire Department,"213 Depot St, Water Valley, KY 42085, USA",36.5645813,-88.81010599999999
"Watts-Caney Volunteer Fire Department, Inc.","Caney, KS 67333, USA",37.0114608,-95.9352584
Wax Fire & Rescue,"13587 Peonia Rd, Clarkson, KY 42726, USA",37.3508471,-86.1308518
Waynesburg Area Volunteer Fire Department,"16020 State Hwy 1247, Waynesburg, KY 40489, USA",37.3356777,-84.6607624
Webbville Volunteer Fire Department,"24 Maranatha Ln, Webbville, KY 41180, USA",38.1800826,-82.8725297
West Knox Volunteer Fire Department,"90 Gloucester Ave, Corbin, KY 40701, USA",36.95046540000001,-84.0687189
West McCracken Fire District,"9320 Ogden Landing Rd, West Paducah, KY 42086, USA",37.1065806,-88.77948219999999
West McCreary Volunteer Fire Department,"Stearns, KY, USA",36.6989673,-84.4774386
West Point Fire Department,"509 Elm St, West Point, KY 40177, USA",38.0003187,-85.9475069
West Side Volunteer Fire Department,"Spain Ln, Hopkinsville, KY 42240, USA",36.9029907,-87.5080922
West Van Lear Volunteer Fire Department,"817 KY-302, West Van Lear, KY 41268, USA",37.784216,-82.779448
Western Central Volunteer Fire Department,"90 Gloucester Ave, Corbin, KY 40701, USA",36.95046540000001,-84.0687189
Western Rockcastle Fire Department,"Old Somerset Pike, Brodhead, KY 40409, USA",37.3330235,-84.45304159999999
Westwood Fire Department,"2039 Main St W, Ashland, KY 41102, USA",38.4811013,-82.6740463
Wheatcroft Volunteer Fire Department,"Wheatcroft, KY, USA",37.4900457,-87.862796
Wheelwright Volunteer Fire Department,"1532 KY-306, Wheelwright, KY 41669, USA",37.3338533,-82.72049919999999
Whispering Meadows Fire and Rescue,"60 Rd 6, Morganfield, KY 42437, USA",37.6710913,-87.8689072
White Hall Volunteer Fire Department,"1289 Boonesborough Rd, Richmond, KY 40475, USA",37.8462748,-84.31983900000002
White Mills Volunteer Fire Department,"9225 Sonora Hardin Springs Rd, White Mills, KY 42788, USA",37.54913,-86.0241442
White Oak Volunteer Fire Department,"1085, War Creek Rd, West Liberty, KY 41472, United States",37.9016949,-83.187997
White Plains Volunteer Fire Department,"211 N Bob Bruce Dr, White Plains, KY 42464, USA",37.1887132,-87.3837205
Whitesville Fire Department,"KY-54, Whitesville, KY 42378, USA",37.6825286,-86.8648206
Whitley City Fire Department,"1618 US-27, Whitley City, KY 42653, USA",36.7658,-84.4806
Wickliffe City Fire & Rescue Department,"Wickliffe, OH 44092, USA",41.6053266,-81.4534492
Wickliffe Rural Fire Department,"450 N 4th St, Wickliffe, KY 42087, Wickliffe, KY 42087, United States",36.9687431,-89.0885891
Wilder Fire Department,"1426 Gloria Terrell Dr, Newport, KY 41076, USA",39.008405,-84.47031
Williamsburg Fire/ Rescue Department,"845 S Hwy 25, Williamsburg, KY 40769, USA",36.73305879999999,-84.1566777
Williamsport Fire Department,"KY-40, Kentucky, USA",37.8166255,-82.73365539999999
Williamstown Volunteer Fire Department,"1026, 404 N Main St, Williamstown, KY 41097, United States",38.6412115,-84.5600497
Willisburg Fire Department,"2620 Lawrenceburg Rd, Willisburg, KY 40078, USA",37.8079245,-85.1233361
Wilmore Fire Department,"301 W Linden St, Wilmore, KY 40390, USA",37.8617955,-84.6667591
Winchester Fire Department,"44 N Maple St, Winchester, KY 40391, USA",37.995313,-84.1784211
Wingfield Volunteer Fire Department,"1780 Wingfield Church Rd, Bowling Green, KY 42101, USA",37.1193766,-86.3248204
Wingo Fire Department,"26 Austin Dr, Wingo, KY 42088, USA",36.6435463,-88.738942
Wolf Coal Volunteer Fire Department,"16 State Hwy 1933, Wolf Coal, KY 41339, USA",37.3941129,-83.40169039999999
Wolfe County Fire Department & Ambulance Service,"589 Main St, Campton, KY 41301, USA",37.7347566,-83.5450341
"Woodbine Fire Rescue, Inc.","877 KY-6, Woodbine, KY 40771, USA",36.8951808,-84.0793978
Woodburn Volunteer Fire Department,"900 Woodburn Allen Springs Rd, Woodburn, KY 42170, USA",36.8420698,-86.5259782
Woodford County Fire Protection District,"60 Big Sink Rd, Versailles, KY 40383, USA",38.0587501,-84.72112790000001
Woodlawn Volunteer Fire Department Inc.,"1110 Waterworks Rd, Newport, KY 41071, USA",39.0910326,-84.4743373
Woodstock Fire Department,"2895 Charles Elgin Rd, Eubank, KY 42567, USA",37.2631465,-84.5317793
Wooton Volunteer Fire Department,"210 State Hwy 699, Wooton, KY 41776, USA",37.1192233,-83.27926599999999
Worthington Fire Department,"612 Ferry Ave, Worthington, KY 41183, USA",38.5488214,-82.72736139999999
Worthington Fire Protection District,"9514 Featherbell Blvd, Prospect, KY 40059, USA",38.3225177,-85.56191
Worthville Volunteer Fire Department,"446 KY-467, Worthville, KY 41098, USA",38.60938549999999,-85.0695824
Wurtland Fire Department,"E St, Wurtland, KY 41144, USA",38.5480268,-82.7630215
Yelvington Fire Department,"1124 Yelvington-Knottsville Rd, Maceo, KY 42355, USA",37.8554329,-86.9660596
Yocum Creek Volunteer Fire Department,"217 Rail Ln, Evarts, KY 40828, USA",36.8464506,-83.1365521
Zion Volunteer Fire Department,"8047 KY-351, Henderson, KY 42420, USA",37.8143017,-87.48540249999999
"Zoneton Fire District, Inc.","5328 N Preston Hwy, Shepherdsville, KY 40165, USA",38.05738849999999,-85.6737481
